H1 CPF 01  gfz 2021 07 30 12  7112 tandemx   
H2 1003001  6202 36605    2021 07 30 12 59 42 2021 08 04 00 00 42   120 1 1  0 0 0
H9
10 0 59427  56142.000000  0    3934889.585   2049305.605   5259810.817
10 0 59427  56262.000000  0    3392950.565   1523992.874   5787856.945
10 0 59427  56382.000000  0    2782426.800    982151.662   6214115.203
10 0 59427  56502.000000  0    2113799.564    434357.755   6531128.597
10 0 59427  56622.000000  0    1398738.532   -108909.689   6733356.624
10 0 59427  56742.000000  0     649895.815   -637467.675   6817268.612
10 0 59427  56862.000000  0    -119319.803  -1141620.395   6781401.355
10 0 59427  56982.000000  0    -894983.057  -1612336.495   6626382.276
10 0 59427  57102.000000  0   -1662903.702  -2041410.970   6354917.955
10 0 59427  57222.000000  0   -2408883.932  -2421607.590   5971748.799
10 0 59427  57342.000000  0   -3118979.696  -2746781.722   5483573.886
10 0 59427  57462.000000  0   -3779765.681  -3011983.217   4898941.467
10 0 59427  57582.000000  0   -4378594.096  -3213534.095   4228103.123
10 0 59427  57702.000000  0   -4903841.910  -3349080.089   3482837.649
10 0 59427  57822.000000  0   -5345142.518  -3417615.273   2676246.940
10 0 59427  57942.000000  0   -5693597.901  -3419480.030   1822526.177
10 0 59427  58062.000000  0   -5941964.739  -3356331.298    936709.712
10 0 59427  58182.000000  0   -6084808.536  -3231084.260     34399.494
10 0 59427  58302.000000  0   -6118622.819  -3047828.227   -868517.631
10 0 59427  58422.000000  0   -6041909.852  -2811718.366  -1756159.709
10 0 59427  58542.000000  0   -5855218.662  -2528845.229  -2612938.029
10 0 59427  58662.000000  0   -5561142.154  -2206087.282  -3423836.278
10 0 59427  58782.000000  0   -5164273.956  -1850950.083  -4174676.625
10 0 59427  58902.000000  0   -4671126.527  -1471396.137  -4852366.510
10 0 59427  59022.000000  0   -4090013.558  -1075669.824  -5445122.917
10 0 59427  59142.000000  0   -3430898.872   -672121.035  -5942669.550
10 0 59427  59262.000000  0   -2705217.094   -269032.166  -6336404.146
10 0 59427  59382.000000  0   -1925670.264    125548.027  -6619535.484
10 0 59427  59502.000000  0   -1106003.441    503960.183  -6787188.968
10 0 59427  59622.000000  0    -260765.120    859078.020  -6836480.955
10 0 59427  59742.000000  0     594945.112   1184438.974  -6766562.206
10 0 59427  59862.000000  0    1445738.622   1474357.754  -6578632.572
10 0 59427  59982.000000  0    2276209.173   1724024.419  -6275924.165
10 0 59427  60102.000000  0    3071206.926   1929583.688  -5863651.443
10 0 59427  60222.000000  0    3816111.238   2088194.042  -5348929.469
10 0 59427  60342.000000  0    4497098.340   2198066.667  -4740662.914
10 0 59427  60462.000000  0    5101401.827   2258483.700  -4049403.461
10 0 59427  60582.000000  0    5617558.265   2269794.200  -3287176.070
10 0 59427  60702.000000  0    6035633.142   2233388.044  -2467278.044
10 0 59427  60822.000000  0    6347423.833   2151648.271  -1604051.461
10 0 59427  60942.000000  0    6546630.949   2027881.975   -712631.716
10 0 59427  61062.000000  0    6628995.194   1866230.927    191321.377
10 0 59427  61182.000000  0    6592393.027   1671563.637   1091906.194
10 0 59427  61302.000000  0    6436890.834   1449352.895   1973265.228
10 0 59427  61422.000000  0    6164756.842   1205540.402   2819874.326
10 0 59427  61542.000000  0    5780426.048    946391.992   3616824.472
10 0 59427  61662.000000  0    5290422.122    678348.190   4350091.195
10 0 59427  61782.000000  0    4703237.396    407873.366   5006783.796
10 0 59427  61902.000000  0    4029177.020    141308.129   5575372.858
10 0 59427  62022.000000  0    3280167.246   -115273.484   6045890.815
10 0 59427  62142.000000  0    2469535.498   -356196.083   6410100.503
10 0 59427  62262.000000  0    1611768.163   -576303.366   6661633.541
10 0 59427  62382.000000  0     722248.003   -771065.095   6796097.060
10 0 59427  62502.000000  0    -183024.612   -936668.248   6811145.309
10 0 59427  62622.000000  0   -1087719.385  -1070090.635   6706516.870
10 0 59427  62742.000000  0   -1975469.542  -1169156.144   6484038.118
10 0 59427  62862.000000  0   -2830166.052  -1232569.826   6147592.636
10 0 59427  62982.000000  0   -3636249.205  -1259932.970   5703059.428
10 0 59427  63102.000000  0   -4378995.847  -1251739.065   5158217.470
10 0 59427  63222.000000  0   -5044794.483  -1209350.235   4522615.368
10 0 59427  63342.000000  0   -5621402.583  -1134953.330   3807408.102
10 0 59427  63462.000000  0   -6098179.793  -1031496.933   3025163.548
10 0 59427  63582.000000  0   -6466293.231   -902610.793   2189643.462
10 0 59427  63702.000000  0   -6718892.507   -752509.445   1315559.867
10 0 59427  63822.000000  0   -6851245.489   -585882.097    418309.221
10 0 59427  63942.000000  0   -6860831.083   -407771.542   -486306.881
10 0 59427  64062.000000  0   -6747388.047   -223445.036  -1382369.091
10 0 59427  64182.000000  0   -6512917.028    -38260.569  -2254128.964
10 0 59427  64302.000000  0   -6161639.312    142467.186  -3086291.652
10 0 59427  64422.000000  0   -5699911.310    313599.287  -3864290.520
10 0 59427  64542.000000  0   -5136096.032    470299.296  -4574543.392
10 0 59427  64662.000000  0   -4480398.267    608150.845  -5204686.674
10 0 59427  64782.000000  0   -3744667.452    723264.162  -5743783.419
10 0 59427  64902.000000  0   -2942173.826    812368.172  -6182503.515
10 0 59427  65022.000000  0   -2087363.043    872886.957  -6513272.817
10 0 59427  65142.000000  0   -1195594.777    903000.292  -6730392.989
10 0 59427  65262.000000  0    -282868.100    901686.853  -6830128.784
10 0 59427  65382.000000  0     634459.070    868749.113  -6810764.025
10 0 59427  65502.000000  0    1539954.884    804819.926  -6672630.077
10 0 59427  65622.000000  0    2417402.440    711350.851  -6418101.952
10 0 59427  65742.000000  0    3251084.555    590582.436  -6051561.614
10 0 59427  65862.000000  0    4026061.622    445496.643  -5579329.591
10 0 59427  65982.000000  0    4728437.873    279751.309  -5009566.614
10 0 59427  66102.000000  0    5345614.263     97599.125  -4352144.699
10 0 59427  66222.000000  0    5866522.119    -96208.907  -3618486.229
10 0 59427  66342.000000  0    6281831.182   -296533.381  -2821374.171
10 0 59427  66462.000000  0    6584129.425   -497967.813  -1974735.819
10 0 59427  66582.000000  0    6768068.620   -694968.548  -1093400.782
10 0 59427  66702.000000  0    6830470.394   -881989.743   -192839.129
10 0 59427  66822.000000  0    6770390.661  -1053620.729    711115.021
10 0 59427  66942.000000  0    6589139.460  -1204722.192   1602549.768
10 0 59427  67062.000000  0    6290255.965  -1330557.802   2465764.277
10 0 59427  67182.000000  0    5879436.917  -1426916.773   3285555.261
10 0 59427  67302.000000  0    5364422.040  -1490224.803   4047491.267
10 0 59427  67422.000000  0    4754839.938  -1517641.631   4738171.319
10 0 59427  67542.000000  0    4062018.332  -1507140.827   5345461.879
10 0 59427  67662.000000  0    3298764.511  -1457570.841   5858709.084
10 0 59427  67782.000000  0    2479119.388  -1368697.061   6268921.988
10 0 59427  67902.000000  0    1618093.077  -1241223.634   6568924.109
10 0 59427  68022.000000  0     731385.583  -1076794.872   6753473.783
10 0 59427  68142.000000  0    -164902.321   -877975.118   6819349.930
10 0 59427  68262.000000  0   -1054561.403   -648208.580   6765403.379
10 0 59427  68382.000000  0   -1921565.634   -391759.814   6592575.217
10 0 59427  68502.000000  0   -2750359.351   -113634.997   6303881.433
10 0 59427  68622.000000  0   -3526136.138    180514.478   5904364.722
10 0 59427  68742.000000  0   -4235106.027    484504.472   5401012.469
10 0 59427  68862.000000  0   -4864745.824    791744.916   4802640.419
10 0 59427  68982.000000  0   -5404027.837   1095378.851   4119743.994
10 0 59427  69102.000000  0   -5843621.609   1388431.144   3364317.454
10 0 59427  69222.000000  0   -6176064.176   1663963.453   2549645.223
10 0 59427  69342.000000  0   -6395895.936   1915231.914   1690067.549
10 0 59427  69462.000000  0   -6499758.503   2135844.017    800724.284
10 0 59427  69582.000000  0   -6486450.271   2319910.928   -102719.382
10 0 59427  69702.000000  0   -6356937.763   2462189.993  -1004357.660
10 0 59427  69822.000000  0   -6114323.252   2558214.575  -1888332.954
10 0 59427  69942.000000  0   -5763770.137   2604408.562  -2739123.074
10 0 59427  70062.000000  0   -5312386.033   2598181.823  -3541820.780
10 0 59427  70182.000000  0   -4769068.580   2538003.631  -4282397.493
10 0 59427  70302.000000  0   -4144319.351   2423453.664  -4947946.992
10 0 59427  70422.000000  0   -3450030.362   2255249.749  -5526904.319
10 0 59427  70542.000000  0   -2699250.427   2035252.664  -6009237.210
10 0 59427  70662.000000  0   -1905935.617   1766447.911  -6386610.203
10 0 59427  70782.000000  0   -1084686.850   1452904.448  -6652516.960
10 0 59427  70902.000000  0    -250483.531   1099712.173  -6802380.697
10 0 59427  71022.000000  0     581584.202    712899.568  -6833623.755
10 0 59427  71142.000000  0    1396581.036    299333.085  -6745708.755
10 0 59427  71262.000000  0    2179989.738   -133402.341  -6540147.314
10 0 59427  71382.000000  0    2917963.567   -577138.601  -6220476.316
10 0 59427  71502.000000  0    3597567.908  -1023274.120  -5792203.728
10 0 59427  71622.000000  0    4207005.113  -1462935.438  -5262722.655
10 0 59427  71742.000000  0    4735822.352  -1887149.982  -4641196.169
10 0 59427  71862.000000  0    5175097.019  -2287026.704  -3938409.615
10 0 59427  71982.000000  0    5517595.748  -2653940.177  -3166593.387
10 0 59427  72102.000000  0    5757904.132  -2979714.772  -2339217.066
10 0 59427  72222.000000  0    5892522.334  -3256804.615  -1470757.275
10 0 59427  72342.000000  0    5919924.214  -3478464.824   -576444.477
10 0 59427  72462.000000  0    5840578.069  -3638910.179    328007.981
10 0 59427  72582.000000  0    5656927.348  -3733456.529   1226686.209
99
